[{"OBJECT_NAME":"LAPAN-A3","OBJECT_ID":"2016-040E","EPOCH":"2026-03-09T23:01:57.724896","MEAN_MOTION":15.3238951,"ECCENTRICITY":0.00109839,"INCLINATION":97.1488,"RA_OF_ASC_NODE":68.4254,"ARG_OF_PERICENTER":22.062,"MEAN_ANOMALY":338.1093,"EPHEMERIS_TYPE":0,"CLASSIFICATION_TYPE":"U","NORAD_CAT_ID":41603,"ELEMENT_SET_NO":999,"REV_AT_EPOCH":53961,"BSTAR":0.00017567445,"MEAN_MOTION_DOT":5.428e-5,"MEAN_MOTION_DDOT":0},{"OBJECT_NAME":"STARLINK-31561","OBJECT_ID":"2024-060E","EPOCH":"2026-03-09T12:46:28.245504","MEAN_MOTION":15.27576343,"ECCENTRICITY":6.664e-5,"INCLINATION":42.9985,"RA_OF_ASC_NODE":260.3254,"ARG_OF_PERICENTER":172.8342,"MEAN_ANOMALY":187.2519,"EPHEMERIS_TYPE":0,"CLASSIFICATION_TYPE":"U","NORAD_CAT_ID":59352,"ELEMENT_SET_NO":999,"REV_AT_EPOCH":11004,"BSTAR":6.634525e-6,"MEAN_MOTION_DOT":-7.9e-7,"MEAN_MOTION_DDOT":0}]
